[
    {
       "OBJECT_NAME": "VDNH-80",
       "OBJECT_ID": "2019-038G",
       "EPOCH": "2022-03-13T17:48:16.481088",
       "MEAN_MOTION": 15.15389402,
       "ECCENTRICITY": 0.0022253,
       "INCLINATION": 97.6233,
       "RA_OF_ASC_NODE": 42.1364,
       "ARG_OF_PERICENTER": 102.493,
       "MEAN_ANOMALY": 342.7627,
       "EPHEMERIS_TYPE": 0,
       "CLASSIFICATION_TYPE": "U",
       "NORAD_CAT_ID": 44392,
       "ELEMENT_SET_NO": 999,
       "REV_AT_EPOCH": 14834,
       "BSTAR": 0.00048057,
       "MEAN_MOTION_DOT": 0.00009064,
       "MEAN_MOTION_DDOT": 0
    },
    {
       "OBJECT_NAME": "D-STAR ONE (LIGHTSAT)",
       "OBJECT_ID": "2019-038H",
       "EPOCH": "2022-03-13T20:53:08.743776",
       "MEAN_MOTION": 15.15351577,
       "ECCENTRICITY": 0.0022497,
       "INCLINATION": 97.6252,
       "RA_OF_ASC_NODE": 42.1347,
       "ARG_OF_PERICENTER": 102.2958,
       "MEAN_ANOMALY": 258.0794,
       "EPHEMERIS_TYPE": 0,
       "CLASSIFICATION_TYPE": "U",
       "NORAD_CAT_ID": 44393,
       "ELEMENT_SET_NO": 999,
       "REV_AT_EPOCH": 14855,
       "BSTAR": 0.00057449,
       "MEAN_MOTION_DOT": 0.00010841,
       "MEAN_MOTION_DDOT": 0
    },
    {
       "OBJECT_NAME": "AMGU-1 (AMURSAT)",
       "OBJECT_ID": "2019-038J",
       "EPOCH": "2022-03-13T21:11:59.163360",
       "MEAN_MOTION": 15.15418051,
       "ECCENTRICITY": 0.0022435,
       "INCLINATION": 97.6245,
       "RA_OF_ASC_NODE": 42.0857,
       "ARG_OF_PERICENTER": 101.6267,
       "MEAN_ANOMALY": 258.7504,
       "EPHEMERIS_TYPE": 0,
       "CLASSIFICATION_TYPE": "U",
       "NORAD_CAT_ID": 44394,
       "ELEMENT_SET_NO": 999,
       "REV_AT_EPOCH": 14855,
       "BSTAR": 0.00045156,
       "MEAN_MOTION_DOT": 0.00008519,
       "MEAN_MOTION_DDOT": 0
    },
    {
       "OBJECT_NAME": "2019-038K",
       "OBJECT_ID": "2019-038K",
       "EPOCH": "2022-03-13T20:04:14.693952",
       "MEAN_MOTION": 15.13623607,
       "ECCENTRICITY": 0.0026158,
       "INCLINATION": 97.6274,
       "RA_OF_ASC_NODE": 40.8478,
       "ARG_OF_PERICENTER": 103.4286,
       "MEAN_ANOMALY": 343.8593,
       "EPHEMERIS_TYPE": 0,
       "CLASSIFICATION_TYPE": "U",
       "NORAD_CAT_ID": 44395,
       "ELEMENT_SET_NO": 999,
       "REV_AT_EPOCH": 14845,
       "BSTAR": 0.00030225,
       "MEAN_MOTION_DOT": 0.00005407,
       "MEAN_MOTION_DDOT": 0
    },
    {
       "OBJECT_NAME": "LEMUR-2-LILLYJO",
       "OBJECT_ID": "2019-038L",
       "EPOCH": "2022-03-13T12:38:28.671072",
       "MEAN_MOTION": 15.16609634,
       "ECCENTRICITY": 0.0024758,
       "INCLINATION": 97.6121,
       "RA_OF_ASC_NODE": 41.3485,
       "ARG_OF_PERICENTER": 97.2527,
       "MEAN_ANOMALY": 263.1521,
       "EPHEMERIS_TYPE": 0,
       "CLASSIFICATION_TYPE": "U",
       "NORAD_CAT_ID": 44396,
       "ELEMENT_SET_NO": 999,
       "REV_AT_EPOCH": 14852,
       "BSTAR": 0.0005507,
       "MEAN_MOTION_DOT": 0.00010783,
       "MEAN_MOTION_DDOT": 0
    },
    {
       "OBJECT_NAME": "2019-038M",
       "OBJECT_ID": "2019-038M",
       "EPOCH": "2022-03-13T21:12:04.523616",
       "MEAN_MOTION": 15.14832478,
       "ECCENTRICITY": 0.0025703,
       "INCLINATION": 97.6203,
       "RA_OF_ASC_NODE": 41.3375,
       "ARG_OF_PERICENTER": 98.4592,
       "MEAN_ANOMALY": 261.9559,
       "EPHEMERIS_TYPE": 0,
       "CLASSIFICATION_TYPE": "U",
       "NORAD_CAT_ID": 44397,
       "ELEMENT_SET_NO": 999,
       "REV_AT_EPOCH": 14850,
       "BSTAR": 0.00045136,
       "MEAN_MOTION_DOT": 0.00008391,
       "MEAN_MOTION_DDOT": 0
    },
    {
       "OBJECT_NAME": "MOVE-IIB",
       "OBJECT_ID": "2019-038N",
       "EPOCH": "2022-03-13T14:29:51.281664",
       "MEAN_MOTION": 15.16041709,
       "ECCENTRICITY": 0.0024969,
       "INCLINATION": 97.6193,
       "RA_OF_ASC_NODE": 41.3221,
       "ARG_OF_PERICENTER": 98.9986,
       "MEAN_ANOMALY": 261.408,
       "EPHEMERIS_TYPE": 0,
       "CLASSIFICATION_TYPE": "U",
       "NORAD_CAT_ID": 44398,
       "ELEMENT_SET_NO": 999,
       "REV_AT_EPOCH": 14850,
       "BSTAR": 0.00057246,
       "MEAN_MOTION_DOT": 0.00011034,
       "MEAN_MOTION_DDOT": 0
    },
    {
       "OBJECT_NAME": "DOT-1",
       "OBJECT_ID": "2019-038P",
       "EPOCH": "2022-03-13T15:32:30.292512",
       "MEAN_MOTION": 15.13867227,
       "ECCENTRICITY": 0.0025475,
       "INCLINATION": 97.6286,
       "RA_OF_ASC_NODE": 40.9547,
       "ARG_OF_PERICENTER": 108.0011,
       "MEAN_ANOMALY": 252.3999,
       "EPHEMERIS_TYPE": 0,
       "CLASSIFICATION_TYPE": "U",
       "NORAD_CAT_ID": 44399,
       "ELEMENT_SET_NO": 999,
       "REV_AT_EPOCH": 14844,
       "BSTAR": 0.00034748,
       "MEAN_MOTION_DOT": 0.00006267,
       "MEAN_MOTION_DDOT": 0
    },
    {
       "OBJECT_NAME": "SONATE",
       "OBJECT_ID": "2019-038Q",
       "EPOCH": "2022-03-13T21:29:48.739200",
       "MEAN_MOTION": 15.13562963,
       "ECCENTRICITY": 0.0026066,
       "INCLINATION": 97.6272,
       "RA_OF_ASC_NODE": 41.1154,
       "ARG_OF_PERICENTER": 100.8862,
       "MEAN_ANOMALY": 259.5306,
       "EPHEMERIS_TYPE": 0,
       "CLASSIFICATION_TYPE": "U",
       "NORAD_CAT_ID": 44400,
       "ELEMENT_SET_NO": 999,
       "REV_AT_EPOCH": 14847,
       "BSTAR": 0.00026183,
       "MEAN_MOTION_DOT": 0.00004666,
       "MEAN_MOTION_DDOT": 0
    },
    {
       "OBJECT_NAME": "2019-038R",
       "OBJECT_ID": "2019-038R",
       "EPOCH": "2022-03-13T13:39:16.264800",
       "MEAN_MOTION": 15.1533884,
       "ECCENTRICITY": 0.0025079,
       "INCLINATION": 97.6195,
       "RA_OF_ASC_NODE": 41.3935,
       "ARG_OF_PERICENTER": 97.767,
       "MEAN_ANOMALY": 262.6411,
       "EPHEMERIS_TYPE": 0,
       "CLASSIFICATION_TYPE": "U",
       "NORAD_CAT_ID": 44401,
       "ELEMENT_SET_NO": 999,
       "REV_AT_EPOCH": 14848,
       "BSTAR": 0.00048613,
       "MEAN_MOTION_DOT": 0.00009172,
       "MEAN_MOTION_DDOT": 0
    },
    {
       "OBJECT_NAME": "LEMUR-2-WANLI",
       "OBJECT_ID": "2019-038S",
       "EPOCH": "2022-03-13T11:48:29.404800",
       "MEAN_MOTION": 15.1611744,
       "ECCENTRICITY": 0.0024997,
       "INCLINATION": 97.6138,
       "RA_OF_ASC_NODE": 41.1843,
       "ARG_OF_PERICENTER": 98.4727,
       "MEAN_ANOMALY": 261.934,
       "EPHEMERIS_TYPE": 0,
       "CLASSIFICATION_TYPE": "U",
       "NORAD_CAT_ID": 44402,
       "ELEMENT_SET_NO": 999,
       "REV_AT_EPOCH": 14851,
       "BSTAR": 0.00046461,
       "MEAN_MOTION_DOT": 0.00008959,
       "MEAN_MOTION_DDOT": 0
    },
    {
       "OBJECT_NAME": "LEMUR-2-MORAG",
       "OBJECT_ID": "2019-038T",
       "EPOCH": "2022-03-13T11:58:01.043616",
       "MEAN_MOTION": 15.16660255,
       "ECCENTRICITY": 0.002368,
       "INCLINATION": 97.6175,
       "RA_OF_ASC_NODE": 41.9284,
       "ARG_OF_PERICENTER": 100.4046,
       "MEAN_ANOMALY": 259.9857,
       "EPHEMERIS_TYPE": 0,
       "CLASSIFICATION_TYPE": "U",
       "NORAD_CAT_ID": 44403,
       "ELEMENT_SET_NO": 999,
       "REV_AT_EPOCH": 14853,
       "BSTAR": 0.00049241,
       "MEAN_MOTION_DOT": 0.00009641,
       "MEAN_MOTION_DDOT": 0
    },
    {
       "OBJECT_NAME": "SOKRAT",
       "OBJECT_ID": "2019-038U",
       "EPOCH": "2022-03-13T20:46:00.220512",
       "MEAN_MOTION": 15.15268426,
       "ECCENTRICITY": 0.0022689,
       "INCLINATION": 97.624,
       "RA_OF_ASC_NODE": 41.7607,
       "ARG_OF_PERICENTER": 104.0107,
       "MEAN_ANOMALY": 256.365,
       "EPHEMERIS_TYPE": 0,
       "CLASSIFICATION_TYPE": "U",
       "NORAD_CAT_ID": 44404,
       "ELEMENT_SET_NO": 999,
       "REV_AT_EPOCH": 14853,
       "BSTAR": 0.00062508,
       "MEAN_MOTION_DOT": 0.00011776,
       "MEAN_MOTION_DDOT": 0
    }
 ]