VDNH-80                 
1 44392U 19038G   22072.74185742  .00009064  00000+0  48057-3 0  9999
2 44392  97.6233  42.1364 0022253 102.4930 342.7627 15.15389402148346
D-STAR ONE (LIGHTSAT)   
1 44393U 19038H   22072.87024009  .00010841  00000+0  57449-3 0  9992
2 44393  97.6252  42.1347 0022497 102.2958 258.0794 15.15351577148556
AMGU-1 (AMURSAT)        
1 44394U 19038J   22072.88332365  .00008519  00000+0  45156-3 0  9992
2 44394  97.6245  42.0857 0022435 101.6267 258.7504 15.15418051148559
2019-038K               
1 44395U 19038K   22072.83628118  .00005407  00000+0  30225-3 0  9996
2 44395  97.6274  40.8478 0026158 103.4286 343.8593 15.13623607148450
LEMUR-2-LILLYJO         
1 44396U 19038L   22072.52672073  .00010783  00000+0  55070-3 0  9990
2 44396  97.6121  41.3485 0024758  97.2527 263.1521 15.16609634148528
2019-038M               
1 44397U 19038M   22072.88338569  .00008391  00000+0  45136-3 0  9993
2 44397  97.6203  41.3375 0025703  98.4592 261.9559 15.14832478148501
MOVE-IIB                
1 44398U 19038N   22072.60406576  .00011034  00000+0  57246-3 0  9991
2 44398  97.6193  41.3221 0024969  98.9986 261.4080 15.16041709148500
DOT-1                   
1 44399U 19038P   22072.64757283  .00006267  00000+0  34748-3 0  9994
2 44399  97.6286  40.9547 0025475 108.0011 252.3999 15.13867227148444
SONATE                  
1 44400U 19038Q   22072.89570300  .00004666  00000+0  26183-3 0  9992
2 44400  97.6272  41.1154 0026066 100.8862 259.5306 15.13562963148473
2019-038R               
1 44401U 19038R   22072.56893825  .00009172  00000+0  48613-3 0  9996
2 44401  97.6195  41.3935 0025079  97.7670 262.6411 15.15338840148481
LEMUR-2-WANLI           
1 44402U 19038S   22072.49200700  .00008959  00000+0  46461-3 0  9994
2 44402  97.6138  41.1843 0024997  98.4727 261.9340 15.16117440148513
LEMUR-2-MORAG           
1 44403U 19038T   22072.49862319  .00009641  00000+0  49241-3 0  9993
2 44403  97.6175  41.9284 0023680 100.4046 259.9857 15.16660255148537
SOKRAT                  
1 44404U 19038U   22072.86528033  .00011776  00000+0  62508-3 0  9990
2 44404  97.6240  41.7607 0022689 104.0107 256.3650 15.15268426148539
